*******************************************************************************
JPL/HORIZONS               2829 Bobhope (1948 PK)          2023-Sep-04 11:20:10
Rec #:    2829 (+COV) Soln.date: 2023-Aug-23_02:43:39   # obs: 4141 (1948-2023)
 
IAU76/J2000 helio. ecliptic osc. elements (au, days, deg., period=Julian yrs):
 
  EPOCH=  2457705.5 ! 2016-Nov-13.00 (TDB)         Residual RMS= .25468
   EC= .1896474998056295   QR= 2.502156305592117   TP= 2458482.7813252136
   OM= 324.1004996872478   W=  339.4065821998148   IN= 14.3188354922889
   A= 3.087738120129144    MA= 218.8042520699151   ADIST= 3.67331993466617
   PER= 5.42586            N= .181653339           ANGMOM= .0296789
   DAN= 2.52791            DDN= 3.6192             L= 304.0953767
   B= -4.9904686           MOID= 1.49320996        TP= 2018-Dec-30.2813252136
 
Asteroid physical parameters (km, seconds, rotational period in hours):
   GM= n.a.                RAD= 20.6805            ROTPER= 6.3335
   H= 10.96                G= .150                 B-V= n.a.
                           ALBEDO= .055            STYP= n.a.

ASTEROID comments: 
1: soln ref.= JPL#60, OCC=0
2: source=ORB
*******************************************************************************


*******************************************************************************
Ephemeris / API_USER Mon Sep  4 11:20:10 2023 Pasadena, USA      / Horizons
*******************************************************************************
Target body name: 2829 Bobhope (1948 PK)          {source: JPL#60}
Center body name: Solar System Barycenter (0)     {source: DE441}
Center-site name: BODY CENTER
*******************************************************************************
Start time      : A.D. 2023-Aug-12 00:00:00.0000 TDB
Stop  time      : A.D. 2023-Aug-13 00:00:00.0000 TDB
Step-size       : 2880 minutes
*******************************************************************************
Center geodetic : 0.0, 0.0, 0.0                   {E-lon(deg),Lat(deg),Alt(km)}
Center cylindric: 0.0, 0.0, 0.0                   {E-lon(deg),Dxy(km),Dz(km)}
Center radii    : (undefined)
Small perturbers: Yes                             {source: SB441-N16}
Output units    : KM-S
Calendar mode   : Mixed Julian/Gregorian
Output type     : GEOMETRIC cartesian states
Output format   : 2 (position and velocity)
Reference frame : Ecliptic of J2000.0
*******************************************************************************
Initial IAU76/J2000 heliocentric ecliptic osculating elements (au, days, deg.):
  EPOCH=  2457705.5 ! 2016-Nov-13.00 (TDB)         Residual RMS= .25468        
   EC= .1896474998056295   QR= 2.502156305592117   TP= 2458482.7813252136      
   OM= 324.1004996872478   W=  339.4065821998148   IN= 14.3188354922889        
  Equivalent ICRF heliocentric cartesian coordinates (au, au/d):
   X=-3.119845568484701E+00  Y= 1.648629502811969E+00  Z= 6.005385316458668E-01
  VX=-3.124296425129992E-03 VY=-6.047743122875986E-03 VZ=-4.813628728318810E-03
Asteroid physical parameters (km, seconds, rotational period in hours):        
   GM= n.a.                RAD= 20.6805            ROTPER= 6.3335              
   H= 10.96                G= .150                 B-V= n.a.                   
                           ALBEDO= .055            STYP= n.a.                  
*******************************************************************************
JDTDB
   X     Y     Z
   VX    VY    VZ
*******************************************************************************
$$SOE
2460168.500000000 = A.D. 2023-Aug-12 00:00:00.0000 TDB 
 X =-2.708001326998003E+08 Y =-3.116028371431115E+08 Z =-1.045032426637157E+08
 VX= 1.572725125614076E+01 VY=-9.523502517449261E+00 VZ= 4.008916932878157E-01
$$EOE
*******************************************************************************
 
TIME

  Barycentric Dynamical Time ("TDB" or T_eph) output was requested. This
continuous coordinate time is equivalent to the relativistic proper time
of a clock at rest in a reference frame co-moving with the solar system
barycenter but outside the system's gravity well. It is the independent
variable in the solar system relativistic equations of motion.

  TDB runs at a uniform rate of one SI second per second and is independent
of irregularities in Earth's rotation.
 
CALENDAR SYSTEM

  Mixed calendar mode was active such that calendar dates after AD 1582-Oct-15
(if any) are in the modern Gregorian system. Dates prior to 1582-Oct-5 (if any)
are in the Julian calendar system, which is automatically extended for dates
prior to its adoption on 45-Jan-1 BC.  The Julian calendar is useful for
matching historical dates. The Gregorian calendar more accurately corresponds
to the Earth's orbital motion and seasons. A "Gregorian-only" calendar mode is
available if such physical events are the primary interest.

REFERENCE FRAME AND COORDINATES

  Ecliptic at the standard reference epoch

    Reference epoch: J2000.0
    X-Y plane: adopted Earth orbital plane at the reference epoch
               Note: IAU76 obliquity of 84381.448 arcseconds wrt ICRF X-Y plane
    X-axis   : ICRF
    Z-axis   : perpendicular to the X-Y plane in the directional (+ or -) sense
               of Earth's north pole at the reference epoch.

  Symbol meaning:

    JDTDB    Julian Day Number, Barycentric Dynamical Time
      X      X-component of position vector (km)
      Y      Y-component of position vector (km)
      Z      Z-component of position vector (km)
      VX     X-component of velocity vector (km/sec)                           
      VY     Y-component of velocity vector (km/sec)                           
      VZ     Z-component of velocity vector (km/sec)                           

ABERRATIONS AND CORRECTIONS

 Geometric state vectors have NO corrections or aberrations applied.

Computations by ...

    Solar System Dynamics Group, Horizons On-Line Ephemeris System
    4800 Oak Grove Drive, Jet Propulsion Laboratory
    Pasadena, CA  91109   USA

    General site: https://ssd.jpl.nasa.gov/
    Mailing list: https://ssd.jpl.nasa.gov/email_list.html
    System news : https://ssd.jpl.nasa.gov/horizons/news.html
    User Guide  : https://ssd.jpl.nasa.gov/horizons/manual.html
    Connect     : browser        https://ssd.jpl.nasa.gov/horizons/app.html#/x
                  API            https://ssd-api.jpl.nasa.gov/doc/horizons.html
                  command-line   telnet ssd.jpl.nasa.gov 6775
                  e-mail/batch   https://ssd.jpl.nasa.gov/ftp/ssd/hrzn_batch.txt
                  scripts        https://ssd.jpl.nasa.gov/ftp/ssd/SCRIPTS
    Author      : Jon.D.Giorgini@jpl.nasa.gov
*******************************************************************************
